NORAD_CAT_ID,OBJECT_NAME,OBJECT_TYPE,EPOCH,MEAN_MOTION,ECCENTRICITY,INCLINATION,RA_OF_ASC_NODE,ARG_OF_PERICENTER,MEAN_ANOMALY,BSTAR,MEAN_MOTION_DOT,MEAN_MOTION_DDOT,TLE_LINE0,TLE_LINE1,TLE_LINE2,SEMIMAJOR_AXIS,PERIOD,APOGEE,PERIGEE,DECAYED
52111.0,STARLINK-3708,PAYLOAD,2022-07-28 22:00:00,15.08833377,0.0001984,53.2144,243.8015,46.1633,326.455,0.0021781,0.00034541,0.0,0 STARLINK-3708,1 52111U 22029Z   22209.91667824  .00034541  00000-0  21781-2 0  9991,2 52111  53.2144 243.8015 0001984  46.1633 326.4550 15.08833377 21541,6917.901,95.438,541.138,538.393,0.0
52111.0,STARLINK-3708,PAYLOAD,2022-07-29 14:00:01,15.08855676,0.0002154,53.2141,240.8102,40.6117,355.2224,-0.00094375,-0.00015284,0.0,0 STARLINK-3708,1 52111U 22029Z   22210.58334491 -.00015284  00000-0 -94375-3 0  9992,2 52111  53.2141 240.8102 0002154  40.6117 355.2224 15.08855676  1304,6917.831999999999,95.437,541.188,538.207,0.0
52111.0,STARLINK-3708,PAYLOAD,2022-07-29 22:00:00,15.0880774,0.0001895,53.2142,239.3119,44.5098,2.9443,0.0023853999999999,0.00037847,0.0,0 STARLINK-3708,1 52111U 22029Z   22210.91667824  .00037847  00000-0  23854-2 0  9998,2 52111  53.2142 239.3119 0001895  44.5098   2.9443 15.08807740  1306,6917.979,95.44,541.155,538.533,0.0
52111.0,STARLINK-3708,PAYLOAD,2022-07-30 14:00:01,15.08822355,0.0002116,53.2138,236.3207,40.2523,30.3605,0.0012049,0.00018931,0.0,0 STARLINK-3708,1 52111U 22029Z   22211.58334491  .00018931  00000-0  12049-2 0  9990,2 52111  53.2138 236.3207 0002116  40.2523  30.3605 15.08822355  1303,6917.934,95.439,541.263,538.335,0.0
52111.0,STARLINK-3708,PAYLOAD,2022-07-30 22:00:00,15.08809544,0.0001906999999999,53.2138,234.8225,45.7765,36.4281,0.0024666,0.00039154,0.0,0 STARLINK-3708,1 52111U 22029Z   22211.91667824  .00039154  00000-0  24666-2 0  9994,2 52111  53.2138 234.8225 0001907  45.7765  36.4281 15.08809544 21844,6917.973000000001,95.439,541.158,538.519,0.0
52111.0,STARLINK-3708,PAYLOAD,2022-07-31 14:00:01,15.08827568,0.0002145,53.2136,231.8312,41.754,63.6128,0.00069993,0.00010865,0.0,0 STARLINK-3708,1 52111U 22029Z   22212.58334491  .00010865  00000-0  69993-3 0  9990,2 52111  53.2136 231.8312 0002145  41.7540  63.6128 15.08827568 21947,6917.918000000002,95.438,541.2669999999998,538.299,0.0
52111.0,STARLINK-3708,PAYLOAD,2022-07-31 22:00:00,15.088118,0.0001959,53.2146,230.3331,47.2529,69.7075,0.0023704999999999,0.00037611,0.0,0 STARLINK-3708,1 52111U 22029Z   22212.91667824  .00037611  00000-0  23705-2 0  9994,2 52111  53.2146 230.3331 0001959  47.2529  69.7075 15.08811800  1301,6917.967,95.439,541.187,538.476,0.0
52111.0,STARLINK-3708,PAYLOAD,2022-08-01 14:00:01,15.08832138,0.0002205,53.2152,227.3418,43.2306,96.8934,0.00013155,1.806e-05,0.0,0 STARLINK-3708,1 52111U 22029Z   22213.58334491  .00001806  00000-0  13155-3 0  9995,2 52111  53.2152 227.3418 0002205  43.2306  96.8934 15.08832138  1306,6917.904,95.438,541.295,538.244,0.0
52111.0,STARLINK-3708,PAYLOAD,2022-08-01 22:00:00,15.08812955,0.0002044,53.2153,225.8438,48.4448,103.2715,0.0022841,0.00036224,0.0,0 STARLINK-3708,1 52111U 22029Z   22213.91667824  .00036224  00000-0  22841-2 0  9994,2 52111  53.2153 225.8438 0002044  48.4448 103.2715 15.08812955  1302,6917.9630000000025,95.439,541.242,538.414,0.0
52111.0,STARLINK-3708,PAYLOAD,2022-08-02 14:00:01,15.08838552,0.0002290999999999,53.2154,222.8525,44.3704,130.4716,-0.00029527,-4.984e-05,0.0,0 STARLINK-3708,1 52111U 22029Z   22214.58334491 -.00004984  00000-0 -29527-3 0  9998,2 52111  53.2154 222.8525 0002291  44.3704 130.4716 15.08838552 22241,6917.885,95.438,541.335,538.165,0.0
52111.0,STARLINK-3708,PAYLOAD,2022-08-03 14:00:01,15.08847847,0.000239,53.216,218.3632,45.5698,164.0419,-0.00088084,-0.00014283,0.0,0 STARLINK-3708,1 52111U 22029Z   22215.58334491 -.00014283  00000-0 -88084-3 0  9995,2 52111  53.2160 218.3632 0002390  45.5698 164.0419 15.08847847  1306,6917.856,95.437,541.375,538.068,0.0
52111.0,STARLINK-3708,PAYLOAD,2022-08-03 20:00:01,15.08822865,0.0002251,53.2163,217.2397,49.0414,79.2784,0.0020337,0.00032212,0.0,0 STARLINK-3708,1 52111U 22029Z   22215.83334491  .00032212  00000-0  20337-2 0  9999,2 52111  53.2163 217.2397 0002251  49.0414  79.2784 15.08822865 22438,6917.933000000001,95.439,541.355,538.241,0.0
52111.0,STARLINK-3708,PAYLOAD,2022-08-03 22:00:01,15.08824368,0.0002271,53.2162,216.8652,50.3689,170.9108,0.0022837,0.00036229,0.0,0 STARLINK-3708,1 52111U 22029Z   22215.91668981  .00036229  00000-0  22837-2 0  9991,2 52111  53.2162 216.8652 0002271  50.3689 170.9108 15.08824368  1309,6917.928000000001,95.439,541.364,538.222,0.0
52111.0,STARLINK-3708,PAYLOAD,2022-08-04 14:00:01,15.0885852,0.0002472,53.2165,213.874,46.9922,197.4121,-0.0014568,-0.00023411,0.0,0 STARLINK-3708,1 52111U 22029Z   22216.58334491 -.00023411  00000-0 -14568-2 0  9994,2 52111  53.2165 213.8740 0002472  46.9922 197.4121 15.08858520  1307,6917.824000000001,95.436,541.399,537.979,0.0
52111.0,STARLINK-3708,PAYLOAD,2022-08-04 22:00:00,15.08831607,0.0002359,53.2167,212.3761,51.9458,204.0717,0.0022441999999999,0.00035602,0.0,0 STARLINK-3708,1 52111U 22029Z   22216.91667824  .00035602  00000-0  22442-2 0  9993,2 52111  53.2167 212.3761 0002359  51.9458 204.0717 15.08831607  1303,6917.906,95.438,541.403,538.139,0.0
52111.0,STARLINK-3708,PAYLOAD,2022-08-05 06:00:02,15.08854858,0.000254,53.2168,210.8814,49.3051,218.3786,-0.00091643,-0.00014851,0.0,0 STARLINK-3708,1 52111U 22029Z   22217.25002315 -.00014851  00000-0 -91643-3 0  9994,2 52111  53.2168 210.8814 0002540  49.3051 218.3786 15.08854858 22645,6917.835,95.437,541.457,537.943,0.0
52111.0,STARLINK-3708,PAYLOAD,2022-08-05 14:00:01,15.08869176,0.0002517,53.2166,209.3848,48.6806,230.6056,-0.0019039999999999,-0.00030489,0.0,0 STARLINK-3708,1 52111U 22029Z   22217.58335648 -.00030489  00000-0 -19040-2 0  9993,2 52111  53.2166 209.3848 0002517  48.6806 230.6056 15.08869176  1303,6917.791,95.436,541.3969999999998,537.915,0.0
52111.0,STARLINK-3708,PAYLOAD,2022-08-05 22:00:00,15.08841269,0.0002391,53.2168,207.8871,53.7086,237.1368,0.0021756999999999,0.0003451,0.0,0 STARLINK-3708,1 52111U 22029Z   22217.91667824  .00034510  00000-0  21757-2 0  9999,2 52111  53.2168 207.8871 0002391  53.7086 237.1368 15.08841269 22743,6917.877,95.437,541.396,538.087,0.0
52111.0,STARLINK-3708,PAYLOAD,2022-08-06 04:00:03,15.08840387,0.0002408,53.2168,206.7662,49.8935,159.7565,-0.0015874,-0.00025464,0.0,0 STARLINK-3708,1 52111U 22029Z   22218.16670139 -.00025464  00000-0 -15874-2 0  9993,2 52111  53.2168 206.7662 0002408  49.8935 159.7565 15.08840387 22789,6917.879,95.438,541.41,538.078,0.0
52111.0,STARLINK-3708,PAYLOAD,2022-08-06 14:00:01,15.08846786,0.0002435,53.2164,204.8958,48.4316,265.5646,-0.0022415,-0.00035793,0.0,0 STARLINK-3708,1 52111U 22029Z   22218.58334491 -.00035793  00000-0 -22415-2 0  9992,2 52111  53.2164 204.8958 0002435  48.4316 265.5646 15.08846786  1300,6917.86,95.437,541.409,538.04,0.0
52111.0,STARLINK-3708,PAYLOAD,2022-08-06 22:00:00,15.08818885,0.0002319999999999,53.2165,203.3983,54.0508,271.5383,0.0021534,0.00034131,0.0,0 STARLINK-3708,1 52111U 22029Z   22218.91667824  .00034131  00000-0  21534-2 0  9992,2 52111  53.2165 203.3983 0002320  54.0508 271.5383 15.08818885 22893,6917.945,95.439,541.415,538.205,0.0
52111.0,STARLINK-3708,PAYLOAD,2022-08-07 14:00:01,15.08853827,0.0002452,53.2158,200.4068,50.9297,297.8282,-0.0022974,-0.00036681,0.0,0 STARLINK-3708,1 52111U 22029Z   22219.58334491 -.00036681  00000-0 -22974-2 0  9990,2 52111  53.2158 200.4068 0002452  50.9297 297.8282 15.08853827 22998,6917.8380000000025,95.437,541.399,538.007,0.0
52111.0,STARLINK-3708,PAYLOAD,2022-08-07 22:00:00,15.08829966,0.0002360999999999,53.2159,198.9095,56.5552,303.803,0.0019767,0.00031303,0.0,0 STARLINK-3708,1 52111U 22029Z   22219.91667824  .00031303  00000-0  19767-2 0  9996,2 52111  53.2159 198.9095 0002361  56.5552 303.8030 15.08829966  1314,6917.911,95.438,541.409,538.143,0.0
52111.0,STARLINK-3708,PAYLOAD,2022-08-08 02:46:06,15.088347199999998,0.0002415,53.2177,198.018,52.8858,307.2355,7.3737e-05,8.85e-06,0.0,0 STARLINK-3708,1 52111U 22029Z   22220.11535267  .00000885  00000-0  73737-4 0  9995,2 52111  53.2177 198.0180 0002415  52.8858 307.2355 15.08834720 23088,6917.897,95.438,541.432,538.091,0.0
52111.0,STARLINK-3708,PAYLOAD,2022-08-08 14:00:01,15.08869981,0.0002481,53.2152,195.9175,53.7171,329.9075,-0.0018932,-0.00030319,0.0,0 STARLINK-3708,1 52111U 22029Z   22220.58335648 -.00030319  00000-0 -18932-2 0  9998,2 52111  53.2152 195.9175 0002481  53.7171 329.9075 15.08869981  1300,6917.7890000000025,95.436,541.37,537.937,0.0
52111.0,STARLINK-3708,PAYLOAD,2022-08-08 22:00:00,15.08858449,0.0002393,53.2153,194.4204,58.4935,336.6872,0.00112,0.00017591,0.0,0 STARLINK-3708,1 52111U 22029Z   22220.91667824  .00017591  00000-0  11200-2 0  9995,2 52111  53.2153 194.4204 0002393  58.4935 336.6872 15.08858449 23200,6917.824000000001,95.436,541.344,538.034,0.0
52111.0,STARLINK-3708,PAYLOAD,2022-08-09 12:00:00,15.08854844,0.0002441999999999,53.2149,191.8029,51.9496,273.555,-0.0012485,-0.00020112,0.0,0 STARLINK-3708,1 52111U 22029Z   22221.50001157 -.00020112  00000-0 -12485-2 0  9993,2 52111  53.2149 191.8029 0002442  51.9496 273.5550 15.08854844 23281,6917.835,95.437,541.389,538.011,0.0
52111.0,STARLINK-3708,PAYLOAD,2022-08-09 14:00:01,15.0886352,0.0002415,53.2151,191.4282,53.4887,4.9149,-0.0027143,-0.00043257,0.0,0 STARLINK-3708,1 52111U 22029Z   22221.58334491 -.00043257  00000-0 -27143-2 0  9993,2 52111  53.2151 191.4282 0002415  53.4887   4.9149 15.08863520  1302,6917.808000000001,95.436,541.344,538.003,0.0
52111.0,STARLINK-3708,PAYLOAD,2022-08-09 22:00:00,15.08832822,0.0002333,53.2152,189.931,57.6318,12.378,-2.4474e-06,-3.27e-06,0.0,0 STARLINK-3708,1 52111U 22029Z   22221.91667824 -.00000327  00000-0 -24474-5 0  9997,2 52111  53.2152 189.9310 0002333  57.6318  12.3780 15.08832822  1306,6917.901999999999,95.438,541.381,538.153,0.0
